0 OPS 4682 DEB
1 29061U 65027BL  13283.71498993 -.00000200  00000-0 -75397-3 0  8240
2 29061 090.2980 259.2626 0033529 100.7856 022.8265 12.93509514629336
0 OPS 4682 DEB
1 29061U 65027BL  13287.12072017  .00000299  00000-0  10600-2 0  8256
2 29061 090.2988 259.3550 0033451 092.3793 041.5721 12.93505137629771
0 OPS 4682 DEB
1 29061U 65027BL  13289.19331315  .00000540  00000-0  19358-2 0  8263
2 29061 090.2995 259.4109 0033364 087.2314 332.5908 12.93504442630045
0 OPS 4682 DEB
1 29061U 65027BL  13291.37959037  .00000145  00000-0  49935-3 0  8270
2 29061 090.2997 259.4707 0033591 081.4451 073.3035 12.93509707630322
0 OPS 4682 DEB
1 29061U 65027BL  13295.16495757  .00000038  00000-0  11068-3 0  8283
2 29061 090.3003 259.5740 0033653 072.0087 059.9134 12.93510686630811
